CTC2_L_00538001-01
1 10000U 22201NU  26075.70048611  .00000000  00000+0  00000-0 0  9994
2 10000  97.6000   0.0000 0000000   0.0000   0.0000 14.98995063    10
CTC2_L_00538002-01
1 10001U 22971RY  26075.70048611  .00000000  00000+0  00000-0 0  9999
2 10001  97.6000  12.0000 0000000   0.0000  48.0000 14.98995063    16
CTC2_L_00538003-01
1 10002U 23878CN  26075.70048611  .00000000  00000+0  00000-0 0  9997
2 10002  97.6000  24.0000 0000000   0.0000  96.0000 14.98995063    13
CTC2_L_00538004-01
1 10003U 22300LL  26075.70048611  .00000000  00000+0  00000-0 0  9997
2 10003  97.6000  36.0000 0000000   0.0000 144.0000 14.98995063    11
CTC2_L_00538005-01
1 10004U 23023UT  26075.70048611  .00000000  00000+0  00000-0 0  9991
2 10004  97.6000  48.0000 0000000   0.0000 192.0000 14.98995063    18
CTC2_L_00538006-01
1 10005U 26873JM  26075.70048611  .00000000  00000+0  00000-0 0  9998
2 10005  97.6000  60.0000 0000000   0.0000 240.0000 14.98995063    17
CTC2_L_00538007-01
1 10006U 22586IC  26075.70048611  .00000000  00000+0  00000-0 0  9996
2 10006  97.6000  72.0000 0000000   0.0000 288.0000 14.98995063    13
CTC2_L_00538008-01
1 10007U 24669SF  26075.70048611  .00000000  00000+0  00000-0 0  9991
2 10007  97.6000  84.0000 0000000   0.0000 336.0000 14.98995063    11
CTC2_L_00538009-01
1 10008U 25785GE  26075.70048611  .00000000  00000+0  00000-0 0  9992
2 10008  97.6000  96.0000 0000000   0.0000  24.0000 14.98995063    19
CTC2_L_00538010-01
1 10009U 22594EF  26075.70048611  .00000000  00000+0  00000-0 0  9998
2 10009  97.6000 108.0000 0000000   0.0000  72.0000 14.98995063    17
CTC2_L_00538011-01
1 10010U 24733FS  26075.70048611  .00000000  00000+0  00000-0 0  9997
2 10010  97.6000 120.0000 0000000   0.0000 120.0000 14.98995063    17
CTC2_L_00538012-01
1 10011U 22938JZ  26075.70048611  .00000000  00000+0  00000-0 0  9993
2 10011  97.6000 132.0000 0000000   0.0000 168.0000 14.98995063    13
CTC2_L_00538013-01
1 10012U 26409VR  26075.70048611  .00000000  00000+0  00000-0 0  9991
2 10012  97.6000 144.0000 0000000   0.0000 216.0000 14.98995063    11
CTC2_L_00538014-01
1 10013U 25061IE  26075.70048611  .00000000  00000+0  00000-0 0  9995
2 10013  97.6000 156.0000 0000000   0.0000 264.0000 14.98995063    18
CTC2_L_00538015-01
1 10014U 25230CH  26075.70048611  .00000000  00000+0  00000-0 0  9994
2 10014  97.6000 168.0000 0000000   0.0000 312.0000 14.98995063    16
CTC2_L_00538016-01
1 10015U 26843AC  26075.70048611  .00000000  00000+0  00000-0 0  9996
2 10015  97.6000 180.0000 0000000   0.0000   0.0000 14.98995063    15
CTC2_L_00538017-01
1 10016U 24487X   26075.70048611  .00000000  00000+0  00000-0 0  9999
2 10016  97.6000 192.0000 0000000   0.0000  48.0000 14.98995063    11
CTC2_L_00538018-01
1 10017U 24897DV  26075.70048611  .00000000  00000+0  00000-0 0  9995
2 10017  97.6000 204.0000 0000000   0.0000  96.0000 14.98995063    19
CTC2_L_00538019-01
1 10018U 23274DM  26075.70048611  .00000000  00000+0  00000-0 0  9994
2 10018  97.6000 216.0000 0000000   0.0000 144.0000 14.98995063    17
CTC2_L_00538020-01
1 10019U 25901HK  26075.70048611  .00000000  00000+0  00000-0 0  9994
2 10019  97.6000 228.0000 0000000   0.0000 192.0000 14.98995063    14
CTC2_L_00538021-01
1 10020U 24695BF  26075.70048611  .00000000  00000+0  00000-0 0  9995
2 10020  97.6000 240.0000 0000000   0.0000 240.0000 14.98995063    14
CTC2_L_00538022-01
1 10021U 26811MQ  26075.70048611  .00000000  00000+0  00000-0 0  9998
2 10021  97.6000 252.0000 0000000   0.0000 288.0000 14.98995063    10
CTC2_L_00538023-01
1 10022U 25435DR  26075.70048611  .00000000  00000+0  00000-0 0  9990
2 10022  97.6000 264.0000 0000000   0.0000 336.0000 14.98995063    18
CTC2_L_00538024-01
1 10023U 23975PL  26075.70048611  .00000000  00000+0  00000-0 0  9998
2 10023  97.6000 276.0000 0000000   0.0000  24.0000 14.98995063    16
CTC2_L_00538025-01
1 10024U 23007FP  26075.70048611  .00000000  00000+0  00000-0 0  9995
2 10024  97.6000 288.0000 0000000   0.0000  72.0000 14.98995063    13
CTC2_L_00538026-01
1 10025U 23422MG  26075.70048611  .00000000  00000+0  00000-0 0  9997
2 10025  97.6000 300.0000 0000000   0.0000 120.0000 14.98995063    13
CTC2_L_00538027-01
1 10026U 23974EY  26075.70048611  .00000000  00000+0  00000-0 0  9990
2 10026  97.6000 312.0000 0000000   0.0000 168.0000 14.98995063    19
CTC2_L_00538028-01
1 10027U 22230FC  26075.70048611  .00000000  00000+0  00000-0 0  9995
2 10027  97.6000 324.0000 0000000   0.0000 216.0000 14.98995063    17
CTC2_L_00538029-01
1 10028U 24184EY  26075.70048611  .00000000  00000+0  00000-0 0  9996
2 10028  97.6000 336.0000 0000000   0.0000 264.0000 14.98995063    14
CTC2_L_00538030-01
1 10029U 24882AM  26075.70048611  .00000000  00000+0  00000-0 0  9992
2 10029  97.6000 348.0000 0000000   0.0000 312.0000 14.98995063    12
